STARLINK-30318          
1 57711U 23129P   26068.14970459 -.00006203  00000+0 -22186-3 0  9993
2 57711  43.0042 120.6342 0002038 287.9745  72.0885 15.26722511140466
BANDWAGON-4 OBJECT P    
1 66306U 25248P   26067.98083108  .00022647  00000+0  92291-3 0  9996
2 66306  45.4037 295.4322 0012078 209.3167 150.7044 15.24098352 19290
