[{"OBJECT_NAME":"STARLINK-30318","OBJECT_ID":"2023-129P","EPOCH":"2026-03-09T03:35:34.476576","MEAN_MOTION":15.26722511,"ECCENTRICITY":0.00020385,"INCLINATION":43.0042,"RA_OF_ASC_NODE":120.6342,"ARG_OF_PERICENTER":287.9745,"MEAN_ANOMALY":72.0885,"EPHEMERIS_TYPE":0,"CLASSIFICATION_TYPE":"U","NORAD_CAT_ID":57711,"ELEMENT_SET_NO":999,"REV_AT_EPOCH":14046,"BSTAR":-0.00022185623,"MEAN_MOTION_DOT":-6.203e-5,"MEAN_MOTION_DDOT":0},{"OBJECT_NAME":"BANDWAGON-4 OBJECT P","OBJECT_ID":"2025-248P","EPOCH":"2026-03-08T23:32:23.805312","MEAN_MOTION":15.24098352,"ECCENTRICITY":0.00120788,"INCLINATION":45.4037,"RA_OF_ASC_NODE":295.4322,"ARG_OF_PERICENTER":209.3167,"MEAN_ANOMALY":150.7044,"EPHEMERIS_TYPE":0,"CLASSIFICATION_TYPE":"U","NORAD_CAT_ID":66306,"ELEMENT_SET_NO":999,"REV_AT_EPOCH":1929,"BSTAR":0.00092291021,"MEAN_MOTION_DOT":0.00022647,"MEAN_MOTION_DDOT":0}]
